[{"OBJECT_NAME":"CAS500-3","OBJECT_ID":"2025-274F","EPOCH":"2026-03-09T17:15:29.131488","MEAN_MOTION":14.88373235,"ECCENTRICITY":0.00084602,"INCLINATION":97.7401,"RA_OF_ASC_NODE":359.0468,"ARG_OF_PERICENTER":99.396,"MEAN_ANOMALY":260.8214,"EPHEMERIS_TYPE":0,"CLASSIFICATION_TYPE":"U","NORAD_CAT_ID":66655,"ELEMENT_SET_NO":999,"REV_AT_EPOCH":1535,"BSTAR":0.00019463023,"MEAN_MOTION_DOT":1.75e-5,"MEAN_MOTION_DDOT":0},{"OBJECT_NAME":"SL-14 R\/B","OBJECT_ID":"1983-099B","EPOCH":"2026-03-09T17:04:20.967456","MEAN_MOTION":14.8623395,"ECCENTRICITY":0.00204236,"INCLINATION":82.5407,"RA_OF_ASC_NODE":142.538,"ARG_OF_PERICENTER":134.9475,"MEAN_ANOMALY":225.3402,"EPHEMERIS_TYPE":0,"CLASSIFICATION_TYPE":"U","NORAD_CAT_ID":14373,"ELEMENT_SET_NO":999,"REV_AT_EPOCH":27262,"BSTAR":6.6267087e-5,"MEAN_MOTION_DOT":6.09e-6,"MEAN_MOTION_DDOT":0}]
